[{"OBJECT_NAME":"STARLINK-34770","OBJECT_ID":"2025-161X","EPOCH":"2026-03-09T22:17:40.550784","MEAN_MOTION":15.30208306,"ECCENTRICITY":7.401e-5,"INCLINATION":53.1587,"RA_OF_ASC_NODE":293.2909,"ARG_OF_PERICENTER":99.5547,"MEAN_ANOMALY":260.5537,"EPHEMERIS_TYPE":0,"CLASSIFICATION_TYPE":"U","NORAD_CAT_ID":65036,"ELEMENT_SET_NO":999,"REV_AT_EPOCH":3426,"BSTAR":0.00018363822,"MEAN_MOTION_DOT":5.085e-5,"MEAN_MOTION_DDOT":0},{"OBJECT_NAME":"CZ-2D R\/B","OBJECT_ID":"2025-227B","EPOCH":"2026-03-09T22:11:26.043072","MEAN_MOTION":15.30393637,"ECCENTRICITY":0.00198129,"INCLINATION":80.1514,"RA_OF_ASC_NODE":267.3771,"ARG_OF_PERICENTER":270.3655,"MEAN_ANOMALY":89.5307,"EPHEMERIS_TYPE":0,"CLASSIFICATION_TYPE":"U","NORAD_CAT_ID":65946,"ELEMENT_SET_NO":999,"REV_AT_EPOCH":2254,"BSTAR":0.00032251975,"MEAN_MOTION_DOT":9.557e-5,"MEAN_MOTION_DDOT":0}]
